{
  "links" : {
    "next" : "https://api.nasa.gov/neo/rest/v1/feed?start_date=2013-08-09&end_date=2013-08-09&detailed=true&api_key=t0TVs3DtDT2H8Oy2Zy8m2eVrNsAVKAexjcZXUckd",
    "prev" : "https://api.nasa.gov/neo/rest/v1/feed?start_date=2013-08-07&end_date=2013-08-07&detailed=true&api_key=t0TVs3DtDT2H8Oy2Zy8m2eVrNsAVKAexjcZXUckd",
    "self" : "https://api.nasa.gov/neo/rest/v1/feed?start_date=2013-08-08&end_date=2013-08-08&detailed=true&api_key=t0TVs3DtDT2H8Oy2Zy8m2eVrNsAVKAexjcZXUckd"
  },
  "element_count" : 10,
  "near_earth_objects" : {
    "2013-08-08" : [ {
      "links" : {
        "self" : "https://api.nasa.gov/neo/rest/v1/neo/3727041?api_key=t0TVs3DtDT2H8Oy2Zy8m2eVrNsAVKAexjcZXUckd"
      },
      "neo_reference_id" : "3727041",
      "name" : "(2015 RQ35)",
      "nasa_jpl_url" : "http://ssd.jpl.nasa.gov/sbdb.cgi?sstr=3727041",
      "absolute_magnitude_h" : 24.3,
      "estimated_diameter" : {
        "kilometers" : {
          "estimated_diameter_min" : 0.0366906138,
          "estimated_diameter_max" : 0.0820427065
        },
        "meters" : {
          "estimated_diameter_min" : 36.6906137531,
          "estimated_diameter_max" : 82.0427064882
        },
        "miles" : {
          "estimated_diameter_min" : 0.0227984834,
          "estimated_diameter_max" : 0.0509789586
        },
        "feet" : {
          "estimated_diameter_min" : 120.3760332259,
          "estimated_diameter_max" : 269.1689931548
        }
      },
      "is_potentially_hazardous_asteroid" : false,
      "close_approach_data" : [ {
        "close_approach_date" : "2013-08-08",
        "epoch_date_close_approach" : 1375945200000,
        "relative_velocity" : {
          "kilometers_per_second" : "6.0365188185",
          "kilometers_per_hour" : "21731.4677466861",
          "miles_per_hour" : "13503.0889451562"
        },
        "miss_distance" : {
          "astronomical" : "0.163603372",
          "lunar" : "63.641708374",
          "kilometers" : "24474716",
          "miles" : "15207883"
        },
        "orbiting_body" : "Earth"
      } ],
      "orbital_data" : {
        "orbit_id" : "10",
        "orbit_determination_date" : "2017-09-14 19:58:11",
        "orbit_uncertainty" : "0",
        "minimum_orbit_intersection" : ".0851549",
        "jupiter_tisserand_invariant" : "4.304",
        "epoch_osculation" : "2458000.5",
        "eccentricity" : ".3190981841306353",
        "semi_major_axis" : "1.594735550172976",
        "inclination" : "7.054596773399195",
        "ascending_node_longitude" : "166.6183847697405",
        "orbital_period" : "735.5825879284217",
        "perihelion_distance" : "1.08585833194421",
        "perihelion_argument" : "155.8881812561654",
        "aphelion_distance" : "2.103612768401742",
        "perihelion_time" : "2457983.219400754607",
        "mean_anomaly" : "8.457263440481114",
        "mean_motion" : ".4894079956593956",
        "equinox" : "J2000"
      }
    } ]
  }
}